GLOBALSTAR M068         
1 32266U 07048D   24279.62528157 -.00000019  00000+0  46818-3 0  9998
2 32266  51.9915 358.2357 0000416 300.9430 208.7549 12.62802086785396
GLOBALSTAR M079         
1 37188U 10054A   24279.54546417 -.00000038  00000+0  36578-3 0  9990
2 37188  52.0031 194.9576 0000928  73.7679  97.1663 12.62265184644293
GLOBALSTAR M074         
1 37189U 10054B   24279.49209931 -.00000052  00000+0  29169-3 0  9996
2 37189  52.0012 194.4769 0000533  84.1903  87.2367 12.62256886644896
GLOBALSTAR M076         
1 37190U 10054C   24279.89637587 -.00000044  00000+0  33451-3 0  9994
2 37190  52.0018 193.4020 0000828  95.2262 349.3226 12.62271079644663
GLOBALSTAR M077         
1 37191U 10054D   24279.88883872 -.00000041  00000+0  35219-3 0  9995
2 37191  52.0057 150.2070 0000815  77.4298  34.1602 12.62265101645038
GLOBALSTAR M075         
1 37192U 10054E   24279.61149036 -.00000037  00000+0  37408-3 0  9991
2 37192  51.9937 236.6647 0000505  77.4300  93.8367 12.62285605643694
GLOBALSTAR M073         
1 37193U 10054F   24279.89343117 -.00000074  00000+0  16635-3 0  9998
2 37193  52.0044 149.4320 0000893  90.0115 282.8020 12.62270621645724
GLOBALSTAR M083         
1 37739U 11033A   24279.93711568 -.00000073  00000+0  17080-3 0  9990
2 37739  51.9840  98.3754 0000967  80.2114  71.8827 12.62265891614749
GLOBALSTAR M088         
1 37740U 11033B   24279.56329231 -.00000087  00000+0  93283-4 0  9998
2 37740  51.9769   5.2195 0000610  94.1550 279.4940 12.62262532610242
GLOBALSTAR M091         
1 37741U 11033C   24279.84915940 -.00000054  00000+0  27557-3 0  9992
2 37741  52.0011 327.4536 0000629  73.2326  98.0185 12.62268065611066
GLOBALSTAR M085         
1 37742U 11033D   24279.75652039 -.00000079  00000+0  13569-3 0  9995
2 37742  51.9857 278.9969 0000588  57.7737 113.6051 12.62266819611566
GLOBALSTAR M081         
1 37743U 11033E   24279.78275111 -.00000077  00000+0  14892-3 0  9999
2 37743  51.9951 281.5464 0000681  80.7643  90.0304 12.62270464611715
GLOBALSTAR M089         
1 37744U 11033F   24279.66450437 -.00000063  00000+0  22598-3 0  9990
2 37744  51.9920 236.1832 0000470 104.5273  67.0431 12.62269997612543
GLOBALSTAR M084         
1 38040U 11080A   24279.80099251 -.00000094  00000+0  55315-4 0  9999
2 38040  51.9988 102.9178 0000708 110.4383 262.4653 12.62268324590547
GLOBALSTAR M080         
1 38041U 11080B   24279.77492716 -.00000087  00000+0  93424-4 0  9994
2 38041  52.0041 104.5152 0000999 117.6473 256.5036 12.62266636590667
GLOBALSTAR M082         
1 38042U 11080C   24279.70886536 -.00000097  00000+0  38804-4 0  9997
2 38042  52.0080  60.1335 0000804  61.5038 312.4703 12.62267357591362
GLOBALSTAR M092         
1 38043U 11080D   24279.86067054 -.00000052  00000+0  28922-3 0  9991
2 38043  52.0069 150.0377 0000648  77.5631  26.6891 12.62267082589833
GLOBALSTAR M090         
1 38044U 11080E   24279.67607858 -.00000099  00000+0  29189-4 0  9991
2 38044  51.9889  54.3693 0000776  81.2061  23.8590 12.62268240591475
GLOBALSTAR M086         
1 38045U 11080F   24279.68218106 -.00000094  00000+0  54859-4 0  9994
2 38045  51.9906  54.8812 0001668 108.6968 264.7330 12.62267880591427
GLOBALSTAR M097         
1 39072U 13005A   24279.86440519 -.00000050  00000+0  30047-3 0  9993
2 39072  52.0065 328.6224 0000657  86.1734 273.9207 12.62271181538697
GLOBALSTAR M093         
1 39073U 13005B   24279.83757798 -.00000061  00000+0  23767-3 0  9994
2 39073  51.9823 322.4115 0000661  77.7962 282.2978 12.62265096538644
GLOBALSTAR M094         
1 39074U 13005C   24279.91679985 -.00000084  00000+0  10903-3 0  9998
2 39074  51.9945 236.2948 0000803  63.9266 296.1683 12.62268930540266
GLOBALSTAR M096         
1 39075U 13005D   24279.69245297 -.00000095  00000+0  49386-4 0  9999
2 39075  52.0064 285.2958 0000722  63.3626 296.7315 12.62271044539154
GLOBALSTAR M078         
1 39076U 13005E   24279.74495263 -.00000164  00000+0 -33329-3 0  9993
2 39076  51.9905   9.9883 0000770  11.4236 348.6648 12.62273451537786
GLOBALSTAR M095         
1 39077U 13005F   24279.77166909 -.00000060  00000+0  24283-3 0  9992
2 39077  51.9830   7.2321 0000815  55.9019 304.1925 12.62265471537647
GLOBALSTAR M087         
1 52888U 22064A   24279.84747546  .00000007  00000+0  25758-3 0  9990
2 52888  51.9752 182.5101 0008777 287.9425  72.0518 13.37588316112334
